{"type": "FeatureCollection", "features": [ {"type": "Feature", "properties": {"norad_id": 28659, "name": "DIRECTV 8", "group": "intelsat", "lat": 0.0008766510389236258, "lon": -168.4654556772822, "alt_km": 35786.659225661664, "timestamp": "2025-12-21T14:40:47.578228+00:00", "meta": {"OBJECT_NAME": "DIRECTV 8", "OBJECT_ID": "2005-019A", "EPOCH": "2025-12-21T07:16:13.721376", "MEAN_MOTION": 1.00270161, "ECCENTRICITY": 0.000292, "INCLINATION": 0.0247, "RA_OF_ASC_NODE": 18.4369, "ARG_OF_PERICENTER": 263.851, "MEAN_ANOMALY": 157.8449, "EPHEMERIS_TYPE": 0, "CLASSIFICATION_TYPE": "U", "NORAD_CAT_ID": 28659, "ELEMENT_SET_NO": 999, "REV_AT_EPOCH": 7528, "BSTAR": 0, "MEAN_MOTION_DOT": 0, "MEAN_MOTION_DDOT": 0}, "tle": {"line1": "1 28659U 05019A   25355.30293659  .00000000  00000+0  00000+0 0  9990", "line2": "2 28659   0.0247  18.4369 0002920 263.8510 157.8449  1.00270161 75282"}}, "geometry": {"type": "Point", "coordinates": [-168.4654556772822, 0.0008766510389236258]}}, {"type": "Feature", "properties": {"norad_id": 28702, "name": "GALAXY 28 (G-28)", "group": "intelsat", "lat": 1.783550068483837, "lon": -138.0563154908348, "alt_km": 35778.71009757054, "timestamp": "2025-12-21T14:40:47.578240+00:00", "meta": {"OBJECT_NAME": "GALAXY 28 (G-28)", "OBJECT_ID": "2005-022A", "EPOCH": "2025-12-20T00:49:30.482112", "MEAN_MOTION": 1.00271047, "ECCENTRICITY": 0.00029384, "INCLINATION": 2.8382, "RA_OF_ASC_NODE": 81.1982, "ARG_OF_PERICENTER": 194.0723, "MEAN_ANOMALY": 97.2981, "EPHEMERIS_TYPE": 0, "CLASSIFICATION_TYPE": "U", "NORAD_CAT_ID": 28702, "ELEMENT_SET_NO": 999, "REV_AT_EPOCH": 5017, "BSTAR": 0, "MEAN_MOTION_DOT": -1.65e-06, "MEAN_MOTION_DDOT": 0}, "tle": {"line1": "1 28702U 05022A   25354.03438058 -.00000165  00000+0  00000+0 0  9999", "line2": "2 28702   2.8382  81.1982 0002938 194.0723  97.2981  1.00271047 50172"}}, "geometry": {"type": "Point", "coordinates": [-138.0563154908348, 1.783550068483837]}}, {"type": "Feature", "properties": {"norad_id": 29236, "name": "GALAXY 16 (G-16)", "group": "intelsat", "lat": 0.0020005495147653093, "lon": -148.41307450004254, "alt_km": 35780.95240143727, "timestamp": "2025-12-21T14:40:47.578252+00:00", "meta": {"OBJECT_NAME": "GALAXY 16 (G-16)", "OBJECT_ID": "2006-023A", "EPOCH": "2025-12-21T06:30:21.606624", "MEAN_MOTION": 1.0027104, "ECCENTRICITY": 0.00024736, "INCLINATION": 0.004, "RA_OF_ASC_NODE": 251.1505, "ARG_OF_PERICENTER": 19.7652, "MEAN_ANOMALY": 177.761, "EPHEMERIS_TYPE": 0, "CLASSIFICATION_TYPE": "U", "NORAD_CAT_ID": 29236, "ELEMENT_SET_NO": 999, "REV_AT_EPOCH": 7119, "BSTAR": 0, "MEAN_MOTION_DOT": -1.04e-06, "MEAN_MOTION_DDOT": 0}, "tle": {"line1": "1 29236U 06023A   25355.27108341 -.00000104  00000+0  00000+0 0  9993", "line2": "2 29236   0.0040 251.1505 0002473  19.7652 177.7610  1.00271040 71195"}}, "geometry": {"type": "Point", "coordinates": [-148.41307450004254, 0.0020005495147653093]}}, {"type": "Feature", "properties": {"norad_id": 29494, "name": "DIRECTV 9S", "group": "intelsat", "lat": 1.5708064133363304, "lon": -150.60345054247273, "alt_km": 35781.216419200784, "timestamp": "2025-12-21T14:40:47.578264+00:00", "meta": {"OBJECT_NAME": "DIRECTV 9S", "OBJECT_ID": "2006-043A", "EPOCH": "2025-12-21T06:30:12.449952", "MEAN_MOTION": 1.00271539, "ECCENTRICITY": 0.0002841, "INCLINATION": 1.9608, "RA_OF_ASC_NODE": 83.1232, "ARG_OF_PERICENTER": 193.151, "MEAN_ANOMALY": 170.1593, "EPHEMERIS_TYPE": 0, "CLASSIFICATION_TYPE": "U", "NORAD_CAT_ID": 29494, "ELEMENT_SET_NO": 999, "REV_AT_EPOCH": 4960, "BSTAR": 0, "MEAN_MOTION_DOT": -9.2e-07, "MEAN_MOTION_DDOT": 0}, "tle": {"line1": "1 29494U 06043A   25355.27097743 -.00000092  00000+0  00000+0 0  9990", "line2": "2 29494   1.9608  83.1232 0002841 193.1510 170.1593  1.00271539 49601"}}, "geometry": {"type": "Point", "coordinates": [-150.60345054247273, 1.5708064133363304]}}, {"type": "Feature", "properties": {"norad_id": 31307, "name": "GALAXY 17 (G-17)", "group": "intelsat", "lat": 1.484865061713841, "lon": -134.3547080943551, "alt_km": 35766.21851276344, "timestamp": "2025-12-21T14:40:47.578276+00:00", "meta": {"OBJECT_NAME": "GALAXY 17 (G-17)", "OBJECT_ID": "2007-016B", "EPOCH": "2025-12-21T06:25:04.356192", "MEAN_MOTION": 1.00270184, "ECCENTRICITY": 0.00053382, "INCLINATION": 2.52, "RA_OF_ASC_NODE": 82.1898, "ARG_OF_PERICENTER": 170.2196, "MEAN_ANOMALY": 208.9738, "EPHEMERIS_TYPE": 0, "CLASSIFICATION_TYPE": "U", "NORAD_CAT_ID": 31307, "ELEMENT_SET_NO": 999, "REV_AT_EPOCH": 6802, "BSTAR": 0, "MEAN_MOTION_DOT": -1.85e-06, "MEAN_MOTION_DDOT": 0}, "tle": {"line1": "1 31307U 07016B   25355.26741153 -.00000185  00000+0  00000+0 0  9990", "line2": "2 31307   2.5200  82.1898 0005338 170.2196 208.9738  1.00270184 68022"}}, "geometry": {"type": "Point", "coordinates": [-134.3547080943551, 1.484865061713841]}}, {"type": "Feature", "properties": {"norad_id": 31862, "name": "DIRECTV 10", "group": "intelsat", "lat": 0.00017795932394206365, "lon": -152.1876494362783, "alt_km": 35785.39131632221, "timestamp": "2025-12-21T14:40:47.578288+00:00", "meta": {"OBJECT_NAME": "DIRECTV 10", "OBJECT_ID": "2007-032A", "EPOCH": "2025-12-20T21:18:05.647104", "MEAN_MOTION": 1.00270377, "ECCENTRICITY": 2.73e-05, "INCLINATION": 0.0073, "RA_OF_ASC_NODE": 111.6707, "ARG_OF_PERICENTER": 78.7977, "MEAN_ANOMALY": 115.9664, "EPHEMERIS_TYPE": 0, "CLASSIFICATION_TYPE": "U", "NORAD_CAT_ID": 31862, "ELEMENT_SET_NO": 999, "REV_AT_EPOCH": 4380, "BSTAR": 0, "MEAN_MOTION_DOT": -8e-07, "MEAN_MOTION_DDOT": 0}, "tle": {"line1": "1 31862U 07032A   25354.88756536 -.00000080  00000+0  00000+0 0  9996", "line2": "2 31862   0.0073 111.6707 0000273  78.7977 115.9664  1.00270377 43806"}}, "geometry": {"type": "Point", "coordinates": [-152.1876494362783, 0.00017795932394206365]}}, {"type": "Feature", "properties": {"norad_id": 32253, "name": "INTELSAT 11 (IS-11)", "group": "intelsat", "lat": 2.6018602453508755, "lon": 137.16708930357154, "alt_km": 36145.31194267168, "timestamp": "2025-12-21T14:40:47.578300+00:00", "meta": {"OBJECT_NAME": "INTELSAT 11 (IS-11)", "OBJECT_ID": "2007-044B", "EPOCH": "2025-12-21T03:49:25.521888", "MEAN_MOTION": 0.99052487, "ECCENTRICITY": 0.00085314, "INCLINATION": 3.1008, "RA_OF_ASC_NODE": 80.884, "ARG_OF_PERICENTER": 169.2653, "MEAN_ANOMALY": 85.8492, "EPHEMERIS_TYPE": 0, "CLASSIFICATION_TYPE": "U", "NORAD_CAT_ID": 32253, "ELEMENT_SET_NO": 999, "REV_AT_EPOCH": 6668, "BSTAR": 0, "MEAN_MOTION_DOT": -8.1e-07, "MEAN_MOTION_DDOT": 0}, "tle": {"line1": "1 32253U 07044B   25355.15932317 -.00000081  00000+0  00000+0 0  9999", "line2": "2 32253   3.1008  80.8840 0008531 169.2653  85.8492  0.99052487 66682"}}, "geometry": {"type": "Point", "coordinates": [137.16708930357154, 2.6018602453508755]}}, {"type": "Feature", "properties": {"norad_id": 32388, "name": "HORIZONS-2", "group": "intelsat", "lat": 0.9207883362801698, "lon": -123.18009416079397, "alt_km": 35771.22364173476, "timestamp": "2025-12-21T14:40:47.578312+00:00", "meta": {"OBJECT_NAME": "HORIZONS-2", "OBJECT_ID": "2007-063B", "EPOCH": "2025-12-21T05:59:55.743072", "MEAN_MOTION": 1.00271391, "ECCENTRICITY": 0.00046033, "INCLINATION": 2.1424, "RA_OF_ASC_NODE": 82.8699, "ARG_OF_PERICENTER": 194.2748, "MEAN_ANOMALY": 189.1264, "EPHEMERIS_TYPE": 0, "CLASSIFICATION_TYPE": "U", "NORAD_CAT_ID": 32388, "ELEMENT_SET_NO": 999, "REV_AT_EPOCH": 6603, "BSTAR": 0, "MEAN_MOTION_DOT": -2.32e-06, "MEAN_MOTION_DDOT": 0}, "tle": {"line1": "1 32388U 07063B   25355.24995073 -.00000232  00000+0  00000+0 0  9995", "line2": "2 32388   2.1424  82.8699 0004603 194.2748 189.1264  1.00271391 66039"}}, "geometry": {"type": "Point", "coordinates": [-123.18009416079397, 0.9207883362801698]}}, {"type": "Feature", "properties": {"norad_id": 32729, "name": "DIRECTV 11", "group": "intelsat", "lat": -0.019398657847598526, "lon": -148.57446942927032, "alt_km": 35785.94302499381, "timestamp": "2025-12-21T14:40:47.578324+00:00", "meta": {"OBJECT_NAME": "DIRECTV 11", "OBJECT_ID": "2008-013A", "EPOCH": "2025-12-21T05:52:41.437056", "MEAN_MOTION": 1.00268906, "ECCENTRICITY": 3.963e-05, "INCLINATION": 0.047, "RA_OF_ASC_NODE": 197.3093, "ARG_OF_PERICENTER": 319.5386, "MEAN_ANOMALY": 282.1989, "EPHEMERIS_TYPE": 0, "CLASSIFICATION_TYPE": "U", "NORAD_CAT_ID": 32729, "ELEMENT_SET_NO": 999, "REV_AT_EPOCH": 4380, "BSTAR": 0, "MEAN_MOTION_DOT": -1.02e-06, "MEAN_MOTION_DDOT": 0}, "tle": {"line1": "1 32729U 08013A   25355.24492404 -.00000102  00000+0  00000+0 0  9996", "line2": "2 32729   0.0470 197.3093 0000396 319.5386 282.1989  1.00268906 43807"}}, "geometry": {"type": "Point", "coordinates": [-148.57446942927032, -0.019398657847598526]}}, {"type": "Feature", "properties": {"norad_id": 32951, "name": "GALAXY 18 (G-18)", "group": "intelsat", "lat": 0.014204131166734545, "lon": -172.42595788836906, "alt_km": 35785.79023937671, "timestamp": "2025-12-21T14:40:47.578336+00:00", "meta": {"OBJECT_NAME": "GALAXY 18 (G-18)", "OBJECT_ID": "2008-024A", "EPOCH": "2025-12-21T04:32:38.609664", "MEAN_MOTION": 1.00271174, "ECCENTRICITY": 0.00028379, "INCLINATION": 0.0174, "RA_OF_ASC_NODE": 59.6193, "ARG_OF_PERICENTER": 215.9312, "MEAN_ANOMALY": 119.6116, "EPHEMERIS_TYPE": 0, "CLASSIFICATION_TYPE": "U", "NORAD_CAT_ID": 32951, "ELEMENT_SET_NO": 999, "REV_AT_EPOCH": 4406, "BSTAR": 0, "MEAN_MOTION_DOT": 4.8e-07, "MEAN_MOTION_DDOT": 0}, "tle": {"line1": "1 32951U 08024A   25355.18933576  .00000048  00000+0  00000+0 0  9996", "line2": "2 32951   0.0174  59.6193 0002837 215.9312 119.6116  1.00271174 44062"}}, "geometry": {"type": "Point", "coordinates": [-172.42595788836906, 0.014204131166734545]}}]}